[{"OBJECT_NAME":"STARLINK-2096","OBJECT_ID":"2021-005AD","EPOCH":"2026-03-09T22:00:01.999584","MEAN_MOTION":15.12290594,"ECCENTRICITY":7.226e-5,"INCLINATION":53.0769,"RA_OF_ASC_NODE":60.5199,"ARG_OF_PERICENTER":65.0752,"MEAN_ANOMALY":315.1685,"EPHEMERIS_TYPE":0,"CLASSIFICATION_TYPE":"U","NORAD_CAT_ID":47376,"ELEMENT_SET_NO":999,"REV_AT_EPOCH":572,"BSTAR":0.006329662,"MEAN_MOTION_DOT":0.0011228,"MEAN_MOTION_DDOT":0},{"OBJECT_NAME":"OBJECT E","OBJECT_ID":"2025-055E","EPOCH":"2026-03-09T22:44:31.516800","MEAN_MOTION":15.14943489,"ECCENTRICITY":0.00151584,"INCLINATION":97.6347,"RA_OF_ASC_NODE":207.9935,"ARG_OF_PERICENTER":118.7219,"MEAN_ANOMALY":241.5538,"EPHEMERIS_TYPE":0,"CLASSIFICATION_TYPE":"U","NORAD_CAT_ID":63295,"ELEMENT_SET_NO":999,"REV_AT_EPOCH":5397,"BSTAR":0.00069679591,"MEAN_MOTION_DOT":0.00012971,"MEAN_MOTION_DDOT":0}]
